ONEWEB-0240             
1 48785U 21045U   24022.16590956 -.00000072  00000+0 -22588-3 0  9993
2 48785  87.8966  73.7528 0002331  92.9051 267.2346 13.15548426130211
ONEWEB-0246             
1 48786U 21045V   24021.70401040 -.00000142  00000+0 -41138-3 0  9998
2 48786  87.8969  73.8473 0002321 102.6351 257.5039 13.15546256128909
ONEWEB-0210             
1 48787U 21045W   24022.13500454  .00000230  00000+0  57623-3 0  9998
2 48787  87.8969  73.7680 0002329 114.2288 245.9086 13.15547788130137
ONEWEB-0214             
1 48788U 21045X   24022.22056940  .00000035  00000+0  59483-4 0  9995
2 48788  87.8969  73.7397 0002249 116.9871 243.1489 13.15549589130106
ONEWEB-0221             
1 48789U 21045Y   24022.15085742  .00000051  00000+0  10173-3 0  9990
2 48789  87.8970  73.7674 0002165  97.8483 262.2893 13.15548122130204
ONEWEB-0213             
1 48790U 21045Z   24021.68341553  .00000046  00000+0  89264-4 0  9996
2 48790  87.8971  73.8772 0002277  99.7740 260.3647 13.15546683129066
ONEWEB-0212             
1 48791U 21045AA  24022.11679399  .00000182  00000+0  44990-3 0  9995
2 48791  87.8970  73.7705 0001792  95.9182 264.2152 13.15548921130254
ONEWEB-0227             
1 48792U 21045AB  24022.11598204  .00000170  00000+0  41749-3 0  9997
2 48792  87.8968  73.7878 0001986  97.3105 262.8251 13.15550911130198
